start=new Date('2023-03-29T00:00:00.000Z').valueOf();
sats=[{"TLE_LINE2":"2 51891  53.2145 154.0005 0001314 117.4422 242.6704 15.08865418 60705","REV_AT_EPOCH":"6070","MEAN_MOTION":"15.08865418","PERIAPSIS":"538.759","OBJECT_ID":"2022-022AR","MEAN_MOTION_DOT":"0.00027479","COUNTRY_CODE":"US","OBJECT_TYPE":"PAYLOAD","TIME_SYSTEM":"UTC","SEMIMAJOR_AXIS":"6917.803","TLE_LINE1":"1 51891U 22022AR  23087.68055762  .00027479  00000-0  17367-2 0  9996","ECCENTRICITY":"0.00013140","OBJECT_NAME":"STARLINK-3549","MEAN_ANOMALY":"242.6704","MEAN_MOTION_DDOT":"0.0000000000000","MEAN_ELEMENT_THEORY":"SGP4","DECAY_DATE":null,"LAUNCH_DATE":"2022-03-03","APOAPSIS":"540.577","GP_ID":"229067096","RCS_SIZE":"LARGE","REF_FRAME":"TEME","CENTER_NAME":"EARTH","PERIOD":"95.436","FILE":"3873921","RA_OF_ASC_NODE":"154.0005","ARG_OF_PERICENTER":"117.4422","CLASSIFICATION_TYPE":"U","BSTAR":"0.00173670000000","ELEMENT_SET_NO":"999","SITE":"AFETR","EPOCH":"2023-03-28T16:20:00.178368","EPHEMERIS_TYPE":"0","NORAD_CAT_ID":"51891","INCLINATION":"53.2145"},{"INCLINATION":"53.2154","NORAD_CAT_ID":"51892","EPHEMERIS_TYPE":"0","EPOCH":"2023-03-28T10:09:04.011840","SITE":"AFETR","ELEMENT_SET_NO":"999","CLASSIFICATION_TYPE":"U","BSTAR":"-0.00008606500000","ARG_OF_PERICENTER":"100.7687","RA_OF_ASC_NODE":"155.1605","PERIOD":"95.437","FILE":"3873565","REF_FRAME":"TEME","CENTER_NAME":"EARTH","GP_ID":"229033201","APOAPSIS":"540.772","RCS_SIZE":"LARGE","LAUNCH_DATE":"2022-03-03","MEAN_ELEMENT_THEORY":"SGP4","DECAY_DATE":null,"MEAN_MOTION_DDOT":"0.0000000000000","MEAN_ANOMALY":"259.3479","OBJECT_NAME":"STARLINK-3587","ECCENTRICITY":"0.00015420","TLE_LINE1":"1 51892U 22022AS  23087.42296310 -.00001658  00000-0 -86065-4 0  9991","SEMIMAJOR_AXIS":"6917.841","MEAN_MOTION_DOT":"-0.00001658","COUNTRY_CODE":"US","OBJECT_TYPE":"PAYLOAD","TIME_SYSTEM":"UTC","OBJECT_ID":"2022-022AS","PERIAPSIS":"538.639","MEAN_MOTION":"15.08852972","REV_AT_EPOCH":"6061","TLE_LINE2":"2 51892  53.2154 155.1605 0001542 100.7687 259.3479 15.08852972 60610"},{"PERIAPSIS":"538.522","MEAN_MOTION":"15.08856698","REV_AT_EPOCH":"6074","OBJECT_ID":"2022-022AT","TLE_LINE2":"2 51893  53.2143 153.1431 0001695  90.9718 269.1468 15.08856698 60748","ECCENTRICITY":"0.00016950","MEAN_ANOMALY":"269.1468","OBJECT_NAME":"STARLINK-3579","SEMIMAJOR_AXIS":"6917.829","TIME_SYSTEM":"UTC","OBJECT_TYPE":"PAYLOAD","COUNTRY_CODE":"US","MEAN_MOTION_DOT":"0.00013205","TLE_LINE1":"1 51893U 22022AT  23087.87191646  .00013205  00000-0  84584-3 0  9999","REF_FRAME":"TEME","CENTER_NAME":"EARTH","DECAY_DATE":null,"MEAN_ELEMENT_THEORY":"SGP4","MEAN_MOTION_DDOT":"0.0000000000000","RCS_SIZE":"LARGE","APOAPSIS":"540.867","GP_ID":"229068097","LAUNCH_DATE":"2022-03-03","EPOCH":"2023-03-28T20:55:33.582144","ELEMENT_SET_NO":"999","SITE":"AFETR","NORAD_CAT_ID":"51893","INCLINATION":"53.2143","EPHEMERIS_TYPE":"0","RA_OF_ASC_NODE":"153.1431","FILE":"3873921","PERIOD":"95.436","CLASSIFICATION_TYPE":"U","BSTAR":"0.00084584000000","ARG_OF_PERICENTER":"90.9718"},{"LAUNCH_DATE":"2022-03-03","RCS_SIZE":"LARGE","APOAPSIS":"540.729","GP_ID":"229034203","MEAN_MOTION_DDOT":"0.0000000000000","DECAY_DATE":null,"MEAN_ELEMENT_THEORY":"SGP4","REF_FRAME":"TEME","CENTER_NAME":"EARTH","ARG_OF_PERICENTER":"90.1266","CLASSIFICATION_TYPE":"U","BSTAR":"-0.00032847000000","FILE":"3873565","PERIOD":"95.439","RA_OF_ASC_NODE":"155.2049","EPHEMERIS_TYPE":"0","NORAD_CAT_ID":"51894","INCLINATION":"53.2144","SITE":"AFETR","ELEMENT_SET_NO":"999","EPOCH":"2023-03-28T09:52:42.951072","TLE_LINE2":"2 51894  53.2144 155.2049 0001297  90.1266 269.9874 15.08811685 60674","OBJECT_ID":"2022-022AU","REV_AT_EPOCH":"6067","MEAN_MOTION":"15.08811685","PERIAPSIS":"538.935","TLE_LINE1":"1 51894U 22022AU  23087.41160823 -.00005508  00000-0 -32847-3 0  9997","TIME_SYSTEM":"UTC","OBJECT_TYPE":"PAYLOAD","COUNTRY_CODE":"US","MEAN_MOTION_DOT":"-0.00005508","SEMIMAJOR_AXIS":"6917.967","OBJECT_NAME":"STARLINK-3595","MEAN_ANOMALY":"269.9874","ECCENTRICITY":"0.00012970"},{"REF_FRAME":"TEME","CENTER_NAME":"EARTH","APOAPSIS":"540.574","GP_ID":"229033937","RCS_SIZE":"LARGE","LAUNCH_DATE":"2022-03-03","MEAN_ELEMENT_THEORY":"SGP4","DECAY_DATE":null,"MEAN_MOTION_DDOT":"0.0000000000000","NORAD_CAT_ID":"51895","INCLINATION":"53.2147","EPHEMERIS_TYPE":"0","EPOCH":"2023-03-28T11:17:57.230592","ELEMENT_SET_NO":"999","SITE":"AFETR","CLASSIFICATION_TYPE":"U","BSTAR":"-0.00001909300000","ARG_OF_PERICENTER":"106.7375","RA_OF_ASC_NODE":"154.9435","PERIOD":"95.437","FILE":"3873565","OBJECT_ID":"2022-022AV","PERIAPSIS":"538.835","MEAN_MOTION":"15.08853331","REV_AT_EPOCH":"6062","TLE_LINE2":"2 51895  53.2147 154.9435 0001257 106.7375 253.3755 15.08853331 60628","MEAN_ANOMALY":"253.3755","OBJECT_NAME":"STARLINK-3594","ECCENTRICITY":"0.00012570","TLE_LINE1":"1 51895U 22022AV  23087.47080128 -.00000592  00000-0 -19093-4 0  9990","SEMIMAJOR_AXIS":"6917.840","OBJECT_TYPE":"PAYLOAD","COUNTRY_CODE":"US","MEAN_MOTION_DOT":"-0.00000592","TIME_SYSTEM":"UTC"},{"MEAN_MOTION":"15.08858770","REV_AT_EPOCH":"6073","PERIAPSIS":"538.867","OBJECT_ID":"2022-022AW","TLE_LINE2":"2 51896  53.2142 153.1525 0001187  96.6781 263.4346 15.08858770 60737","ECCENTRICITY":"0.00011870","OBJECT_NAME":"STARLINK-3593","MEAN_ANOMALY":"263.4346","OBJECT_TYPE":"PAYLOAD","COUNTRY_CODE":"US","MEAN_MOTION_DOT":"0.00015099","TIME_SYSTEM":"UTC","SEMIMAJOR_AXIS":"6917.823","TLE_LINE1":"1 51896U 22022AW  23087.86919546  .00015099  00000-0  96424-3 0  9997","CENTER_NAME":"EARTH","REF_FRAME":"TEME","MEAN_MOTION_DDOT":"0.0000000000000","MEAN_ELEMENT_THEORY":"SGP4","DECAY_DATE":null,"LAUNCH_DATE":"2022-03-03","APOAPSIS":"540.509","GP_ID":"229067346","RCS_SIZE":"LARGE","ELEMENT_SET_NO":"999","SITE":"AFETR","EPOCH":"2023-03-28T20:51:38.487744","EPHEMERIS_TYPE":"0","NORAD_CAT_ID":"51896","INCLINATION":"53.2142","PERIOD":"95.436","FILE":"3873921","RA_OF_ASC_NODE":"153.1525","ARG_OF_PERICENTER":"96.6781","BSTAR":"0.00096424000000","CLASSIFICATION_TYPE":"U"},{"CENTER_NAME":"EARTH","REF_FRAME":"TEME","GP_ID":"229067597","APOAPSIS":"540.941","RCS_SIZE":"LARGE","LAUNCH_DATE":"2022-03-03","MEAN_ELEMENT_THEORY":"SGP4","DECAY_DATE":null,"MEAN_MOTION_DDOT":"0.0000000000000","NORAD_CAT_ID":"51897","INCLINATION":"53.2145","EPHEMERIS_TYPE":"0","EPOCH":"2023-03-28T19:09:34.827264","ELEMENT_SET_NO":"999","SITE":"AFETR","CLASSIFICATION_TYPE":"U","BSTAR":"0.00081187000000","ARG_OF_PERICENTER":"99.9372","RA_OF_ASC_NODE":"153.4713","PERIOD":"95.439","FILE":"3873921","OBJECT_ID":"2022-022AX","PERIAPSIS":"538.705","MEAN_MOTION":"15.08814663","REV_AT_EPOCH":"6067","TLE_LINE2":"2 51897  53.2145 153.4713 0001616  99.9372 260.1803 15.08814663 60670","MEAN_ANOMALY":"260.1803","OBJECT_NAME":"STARLINK-3598","ECCENTRICITY":"0.00016160","TLE_LINE1":"1 51897U 22022AX  23087.79831976  .00012648  00000-0  81187-3 0  9997","SEMIMAJOR_AXIS":"6917.958","COUNTRY_CODE":"US","OBJECT_TYPE":"PAYLOAD","MEAN_MOTION_DOT":"0.00012648","TIME_SYSTEM":"UTC"},{"REV_AT_EPOCH":"6069","MEAN_MOTION":"15.08851597","PERIAPSIS":"538.777","OBJECT_ID":"2022-022AY","TLE_LINE2":"2 51898  53.2140 154.3803 0001349  89.9742 270.1405 15.08851597 60697","ECCENTRICITY":"0.00013490","OBJECT_NAME":"STARLINK-3597","MEAN_ANOMALY":"270.1405","TIME_SYSTEM":"UTC","MEAN_MOTION_DOT":"0.00005443","COUNTRY_CODE":"US","OBJECT_TYPE":"PAYLOAD","SEMIMAJOR_AXIS":"6917.845","TLE_LINE1":"1 51898U 22022AY  23087.59592146  .00005443  00000-0  35971-3 0  9994","REF_FRAME":"TEME","CENTER_NAME":"EARTH","MEAN_MOTION_DDOT":"0.0000000000000","DECAY_DATE":null,"MEAN_ELEMENT_THEORY":"SGP4","LAUNCH_DATE":"2022-03-03","RCS_SIZE":"LARGE","APOAPSIS":"540.643","GP_ID":"229068326","ELEMENT_SET_NO":"999","SITE":"AFETR","EPOCH":"2023-03-28T14:18:07.614144","EPHEMERIS_TYPE":"0","NORAD_CAT_ID":"51898","INCLINATION":"53.2140","FILE":"3873921","PERIOD":"95.437","RA_OF_ASC_NODE":"154.3803","ARG_OF_PERICENTER":"89.9742","CLASSIFICATION_TYPE":"U","BSTAR":"0.00035971000000"},{"SEMIMAJOR_AXIS":"6920.261","TIME_SYSTEM":"UTC","COUNTRY_CODE":"US","OBJECT_TYPE":"PAYLOAD","MEAN_MOTION_DOT":"-0.00001367","TLE_LINE1":"1 51956U 22025A   23087.49920153 -.00001367  00000-0 -69402-4 0  9994","ECCENTRICITY":"0.00016880","MEAN_ANOMALY":"246.3844","OBJECT_NAME":"STARLINK-3700","TLE_LINE2":"2 51956  53.1905 184.9203 0001688 113.7324 246.3844 15.08061370 58579","PERIAPSIS":"540.958","REV_AT_EPOCH":"5857","MEAN_MOTION":"15.08061370","OBJECT_ID":"2022-025A","RA_OF_ASC_NODE":"184.9203","FILE":"3873565","PERIOD":"95.487","BSTAR":"-0.00006940200000","CLASSIFICATION_TYPE":"U","ARG_OF_PERICENTER":"113.7324","EPOCH":"2023-03-28T11:58:51.012192","ELEMENT_SET_NO":"999","SITE":"AFETR","NORAD_CAT_ID":"51956","INCLINATION":"53.1905","EPHEMERIS_TYPE":"0","DECAY_DATE":null,"MEAN_ELEMENT_THEORY":"SGP4","MEAN_MOTION_DDOT":"0.0000000000000","RCS_SIZE":"LARGE","APOAPSIS":"543.295","GP_ID":"229032704","LAUNCH_DATE":"2022-03-09","CENTER_NAME":"EARTH","REF_FRAME":"TEME"},{"ELEMENT_SET_NO":"999","SITE":"AFETR","EPOCH":"2023-03-28T23:51:22.259232","EPHEMERIS_TYPE":"0","NORAD_CAT_ID":"51957","INCLINATION":"53.1952","FILE":"3873902","PERIOD":"95.695","RA_OF_ASC_NODE":"183.2274","ARG_OF_PERICENTER":"62.6389","BSTAR":"0.00108210000000","CLASSIFICATION_TYPE":"U","REF_FRAME":"TEME","CENTER_NAME":"EARTH","MEAN_MOTION_DDOT":"0.0000000000000","DECAY_DATE":null,"MEAN_ELEMENT_THEORY":"SGP4","LAUNCH_DATE":"2022-03-09","RCS_SIZE":"LARGE","APOAPSIS":"553.597","GP_ID":"229043659","ECCENTRICITY":"0.00020680","OBJECT_NAME":"STARLINK-3694","MEAN_ANOMALY":"297.4811","TIME_SYSTEM":"UTC","COUNTRY_CODE":"US","OBJECT_TYPE":"PAYLOAD","MEAN_MOTION_DOT":"0.00015189","SEMIMAJOR_AXIS":"6930.299","TLE_LINE1":"1 51957U 22025B   23087.99400763  .00015189  00000-0  10821-2 0  9994","REV_AT_EPOCH":"5975","MEAN_MOTION":"15.04786328","PERIAPSIS":"550.730","OBJECT_ID":"2022-025B","TLE_LINE2":"2 51957  53.1952 183.2274 0002068  62.6389 297.4811 15.04786328 59753"}];
